[{"OBJECT_NAME":"TEN-KOH","OBJECT_ID":"2018-084G","EPOCH":"2026-03-09T23:23:52.653408","MEAN_MOTION":15.02465351,"ECCENTRICITY":0.0011972,"INCLINATION":98.0798,"RA_OF_ASC_NODE":257.1735,"ARG_OF_PERICENTER":91.8355,"MEAN_ANOMALY":268.424,"EPHEMERIS_TYPE":0,"CLASSIFICATION_TYPE":"U","NORAD_CAT_ID":43677,"ELEMENT_SET_NO":999,"REV_AT_EPOCH":40126,"BSTAR":0.00025918134,"MEAN_MOTION_DOT":3.377e-5,"MEAN_MOTION_DDOT":0},{"OBJECT_NAME":"STARLINK-33897","OBJECT_ID":"2025-094B","EPOCH":"2026-03-09T21:31:28.309152","MEAN_MOTION":14.98333036,"ECCENTRICITY":0.00030947,"INCLINATION":70.0017,"RA_OF_ASC_NODE":233.9544,"ARG_OF_PERICENTER":270.6556,"MEAN_ANOMALY":89.4249,"EPHEMERIS_TYPE":0,"CLASSIFICATION_TYPE":"U","NORAD_CAT_ID":63865,"ELEMENT_SET_NO":999,"REV_AT_EPOCH":4745,"BSTAR":0.00019546056,"MEAN_MOTION_DOT":2.24e-5,"MEAN_MOTION_DDOT":0}]
